NORAD_CAT_ID,OBJECT_NAME,OBJECT_TYPE,EPOCH,MEAN_MOTION,ECCENTRICITY,INCLINATION,RA_OF_ASC_NODE,ARG_OF_PERICENTER,MEAN_ANOMALY,BSTAR,MEAN_MOTION_DOT,MEAN_MOTION_DDOT,TLE_LINE0,TLE_LINE1,TLE_LINE2,SEMIMAJOR_AXIS,PERIOD,APOGEE,PERIGEE,DECAYED
52587.0,STARLINK-3867,PAYLOAD,2024-05-21 03:31:20,15.0885242,0.0001278,53.2156,190.8,76.5859,283.5275,0.00031441,4.721e-05,0.0,0 STARLINK-3867,1 52587U 22051BD  24142.14676280  .00004721  00000-0  31441-3 0  9994,2 52587  53.2156 190.8000 0001278  76.5859 283.5275 15.08852420112390,6917.842,95.437,540.592,538.823,0.0
52587.0,STARLINK-3867,PAYLOAD,2024-05-21 06:42:06,15.08851243,0.0001264,53.2155,190.2057,59.7752,300.3365,0.0010072,0.00015783,0.0,0 STARLINK-3867,1 52587U 22051BD  24142.27924311  .00015783  00000-0  10072-2 0  9995,2 52587  53.2155 190.2057 0001264  59.7752 300.3365 15.08851243112340,6917.846,95.437,540.585,538.837,0.0
52587.0,STARLINK-3867,PAYLOAD,2024-05-22 09:43:39,15.08843935,0.0001305,53.2154,185.1477,96.5009,263.6131,0.00038912,5.911e-05,0.0,0 STARLINK-3867,1 52587U 22051BD  24143.40532144  .00005911  00000-0  38912-3 0  9996,2 52587  53.2154 185.1477 0001305  96.5009 263.6131 15.08843935112585,6917.868,95.437,540.636,538.831,0.0
52587.0,STARLINK-3867,PAYLOAD,2024-05-23 03:12:54,15.08842785,0.0001465,53.2158,181.8802,98.9101,261.2057,0.00016521,2.343e-05,0.0,0 STARLINK-3867,1 52587U 22051BD  24144.13396167  .00002343  00000-0  16521-3 0  9998,2 52587  53.2158 181.8802 0001465  98.9101 261.2057 15.08842785112695,6917.872,95.437,540.75,538.723,0.0
52587.0,STARLINK-3867,PAYLOAD,2024-05-23 07:59:03,15.08840694,0.0001481,53.2158,180.9877,105.8678,254.2477,0.0001041,1.369e-05,0.0,0 STARLINK-3867,1 52587U 22051BD  24144.33268190  .00001369  00000-0  10410-3 0  9992,2 52587  53.2158 180.9877 0001481 105.8678 254.2477 15.08840694112653,6917.878,95.438,540.768,538.719,0.0
52587.0,STARLINK-3867,PAYLOAD,2024-05-24 09:25:13,15.08839642,0.0001268,53.2144,176.2276,83.6765,276.4371,7.1236e-05,8.46e-06,0.0,0 STARLINK-3867,1 52587U 22051BD  24145.39252294  .00000846  00000-0  71236-4 0  9990,2 52587  53.2144 176.2276 0001268  83.6765 276.4371 15.08839642112887,6917.881,95.438,540.624,538.869,0.0
52587.0,STARLINK-3867,PAYLOAD,2024-05-24 18:57:32,15.08842936,0.0001203,53.2147,174.4433,94.3053,265.8077,0.00010239,1.342e-05,0.0,0 STARLINK-3867,1 52587U 22051BD  24145.78996049  .00001342  00000-0  10239-3 0  9993,2 52587  53.2147 174.4433 0001203  94.3053 265.8077 15.08842936112877,6917.871,95.437,540.569,538.904,0.0
52587.0,STARLINK-3867,PAYLOAD,2024-05-25 01:19:06,15.08822638,0.0001119,53.2145,173.2528,89.8069,270.3051,-0.00016145,-2.855e-05,0.0,0 STARLINK-3867,1 52587U 22051BD  24146.05493174 -.00002855  00000-0 -16145-3 0  9999,2 52587  53.2145 173.2528 0001119  89.8069 270.3051 15.08822638112981,6917.933,95.439,540.573,539.024,0.0
52587.0,STARLINK-3867,PAYLOAD,2024-05-25 10:51:24,15.08843176,0.0001288,53.215,171.47,95.7586,264.3554,0.00012837,1.756e-05,0.0,0 STARLINK-3867,1 52587U 22051BD  24146.45236202  .00001756  00000-0  12837-3 0  9991,2 52587  53.2150 171.4700 0001288  95.7586 264.3554 15.08843176113045,6917.871,95.437,540.627,538.845,0.0
52587.0,STARLINK-3867,PAYLOAD,2024-05-25 18:48:14,15.08895328,0.0006077,53.2154,169.98,258.2374,101.7936,0.00061639,9.552e-05,0.0,0 STARLINK-3867,1 52587U 22051BD  24146.78350650  .00009552  00000-0  61639-3 0  9997,2 52587  53.2154 169.9800 0006077 258.2374 101.7936 15.08895328113093,6917.711,95.434,543.78,535.372,0.0
52587.0,STARLINK-3867,PAYLOAD,2024-05-26 06:00:02,15.08872479,0.0001392,53.2138,167.891,88.173,287.0681,-0.0020393,-0.00032625,0.0,0 STARLINK-3867,1 52587U 22051BD  24147.25002315 -.00032625  00000-0 -20393-2 0  9992,2 52587  53.2138 167.8910 0001392  88.1730 287.0681 15.08872479113160,6917.781,95.436,540.609,538.683,0.0
52587.0,STARLINK-3867,PAYLOAD,2024-05-26 09:06:47,15.08844738,0.0001311,53.2156,167.307,85.0547,275.0594,0.00015086,2.114e-05,0.0,0 STARLINK-3867,1 52587U 22051BD  24147.37972038  .00002114  00000-0  15086-3 0  9995,2 52587  53.2156 167.3070 0001311  85.0547 275.0594 15.08844738113117,6917.866,95.437,540.638,538.824,0.0
52587.0,STARLINK-3867,PAYLOAD,2024-05-27 07:22:11,15.08840999,0.0001259,53.2177,163.1422,141.6423,218.4658,2.2954e-05,7.7e-07,0.0,0 STARLINK-3867,1 52587U 22051BD  24148.30708202  .00000077  00000-0  22954-4 0  9998,2 52587  53.2177 163.1422 0001259 141.6423 218.4658 15.08840999113328,6917.877,95.437,540.613,538.871,0.0
52587.0,STARLINK-3867,PAYLOAD,2024-05-27 18:29:53,15.08840946,0.0001307,53.2171,161.061,132.2731,227.8372,2.9487e-06,-2.41e-06,0.0,0 STARLINK-3867,1 52587U 22051BD  24148.77076178 -.00000241  00000-0  29487-5 0  9992,2 52587  53.2171 161.0610 0001307 132.2731 227.8372 15.08840946113329,6917.877,95.437,540.647,538.838,0.0
52587.0,STARLINK-3867,PAYLOAD,2024-05-28 05:37:37,15.0882693,0.000124,53.2164,158.9868,85.2691,274.8442,-8.1613e-05,-1.586e-05,0.0,0 STARLINK-3867,1 52587U 22051BD  24149.23446131 -.00001586  00000-0 -81613-4 0  9996,2 52587  53.2164 158.9868 0001240  85.2691 274.8442 15.08826930113461,6917.92,95.438,540.643,538.928,0.0
52587.0,STARLINK-3867,PAYLOAD,2024-05-28 07:13:00,15.08829897,0.0001265,53.216,158.6876,96.2694,263.8443,-6.6951e-05,-1.353e-05,0.0,0 STARLINK-3867,1 52587U 22051BD  24149.30069874 -.00001353  00000-0 -66951-4 0  9999,2 52587  53.2160 158.6876 0001265  96.2694 263.8443 15.08829897113403,6917.911,95.438,540.651,538.901,0.0
52587.0,STARLINK-3867,PAYLOAD,2024-05-29 06:00:00,15.08847566,0.000146,53.2155,154.4237,95.6159,23.7687,-0.0013813,-0.00022209,0.0,0 STARLINK-3867,1 52587U 22051BD  24150.25001157 -.00022209  00000-0 -13813-2 0  9995,2 52587  53.2155 154.4237 0001460  95.6159  23.7687 15.08847566113617,6917.857,95.437,540.732,538.712,0.0
52587.0,STARLINK-3867,PAYLOAD,2024-05-29 14:00:01,15.08846761,0.0001399,53.2155,152.9274,92.393,38.6415,-0.00071391,-0.00011634,0.0,0 STARLINK-3867,1 52587U 22051BD  24150.58335648 -.00011634  00000-0 -71391-3 0  9992,2 52587  53.2155 152.9274 0001399  92.3930  38.6415 15.08846761  5804,6917.86,95.437,540.693,538.757,0.0
52587.0,STARLINK-3867,PAYLOAD,2024-05-29 22:00:01,15.08825459,0.0001422,53.2158,151.4295,102.9733,39.6679,0.0024124,0.00038299,0.0,0 STARLINK-3867,1 52587U 22051BD  24150.91668981  .00038299  00000-0  24124-2 0  9993,2 52587  53.2158 151.4295 0001422 102.9733  39.6679 15.08825459113714,6917.925,95.438,540.774,538.806,0.0
52587.0,STARLINK-3867,PAYLOAD,2024-05-30 05:19:11,15.08838973,0.000133,53.2157,150.0605,100.6565,259.4576,0.00016674,2.367e-05,0.0,0 STARLINK-3867,1 52587U 22051BD  24151.22166306  .00002367  00000-0  16674-3 0  9991,2 52587  53.2157 150.0605 0001330 100.6565 259.4576 15.08838973113767,6917.884,95.438,540.669,538.828,0.0
52587.0,STARLINK-3867,PAYLOAD,2024-05-31 05:09:57,15.0885257,0.0001337,53.2162,145.6005,98.8948,261.2195,0.0002065,3.001e-05,0.0,0 STARLINK-3867,1 52587U 22051BD  24152.21525384  .00003001  00000-0  20650-3 0  9991,2 52587  53.2162 145.6005 0001337  98.8948 261.2195 15.08852570113911,6917.842,95.437,540.632,538.782,0.0
52587.0,STARLINK-3867,PAYLOAD,2024-05-31 09:56:07,15.08856821,0.0001396,53.2156,144.7087,100.7067,259.4083,0.00027309,4.063e-05,0.0,0 STARLINK-3867,1 52587U 22051BD  24152.41397256  .00004063  00000-0  27309-3 0  9995,2 52587  53.2156 144.7087 0001396 100.7067 259.4083 15.08856821113877,6917.829,95.436,540.66,538.728,0.0
52587.0,STARLINK-3867,PAYLOAD,2024-06-01 05:00:44,15.0884976,0.0001397,53.2159,141.1397,96.7322,263.3829,5.9773e-05,6.64e-06,0.0,0 STARLINK-3867,1 52587U 22051BD  24153.20885027  .00000664  00000-0  59773-4 0  9995,2 52587  53.2159 141.1397 0001397  96.7322 263.3829 15.08849760114062,6917.851,95.437,540.682,538.749,0.0
52587.0,STARLINK-3867,PAYLOAD,2024-06-01 08:11:30,15.08848373,0.000139,53.2157,140.5449,96.3247,263.7904,3.0957e-05,2.05e-06,0.0,0 STARLINK-3867,1 52587U 22051BD  24153.34132999  .00000205  00000-0  30957-4 0  9997,2 52587  53.2157 140.5449 0001390  96.3247 263.7904 15.08848373114018,6917.855,95.437,540.681,538.758,0.0
52587.0,STARLINK-3867,PAYLOAD,2024-06-02 04:51:32,15.08841914,0.0001449,53.2172,136.6796,88.8753,271.2405,-5.0746e-05,-1.096e-05,0.0,0 STARLINK-3867,1 52587U 22051BD  24154.20245633 -.00001096  00000-0 -50746-4 0  9992,2 52587  53.2172 136.6796 0001449  88.8753 271.2405 15.08841914114215,6917.875,95.437,540.742,538.737,0.0
52587.0,STARLINK-3867,PAYLOAD,2024-06-02 08:02:18,15.08843612,0.000146,53.2173,136.0849,88.3425,271.7735,-4.0931e-05,-9.39e-06,0.0,0 STARLINK-3867,1 52587U 22051BD  24154.33493432 -.00000939  00000-0 -40931-4 0  9998,2 52587  53.2173 136.0849 0001460  88.3425 271.7735 15.08843612114165,6917.869,95.437,540.744,538.724,0.0
52587.0,STARLINK-3867,PAYLOAD,2024-06-03 07:53:04,15.088465,0.0001474,53.2173,131.6256,88.6138,271.5023,7.0945e-05,8.41e-06,0.0,0 STARLINK-3867,1 52587U 22051BD  24155.32852759  .00000841  00000-0  70945-4 0  9997,2 52587  53.2173 131.6256 0001474  88.6138 271.5023 15.08846500114388,6917.861,95.437,540.745,538.706,0.0
52587.0,STARLINK-3867,PAYLOAD,2024-06-03 22:11:32,15.08842404,0.000144,53.2172,128.9485,90.5082,269.6075,0.00011485,1.54e-05,0.0,0 STARLINK-3867,1 52587U 22051BD  24155.92468702  .00001540  00000-0  11485-3 0  9994,2 52587  53.2172 128.9485 0001440  90.5082 269.6075 15.08842404114400,6917.873,95.437,540.734,538.742,0.0
52587.0,STARLINK-3867,PAYLOAD,2024-06-04 04:33:05,15.08840787,0.0001444,53.2175,127.759,90.5604,269.5554,9.59e-05,1.239e-05,0.0,0 STARLINK-3867,1 52587U 22051BD  24156.18964897  .00001239  00000-0  95900-4 0  9999,2 52587  53.2175 127.7590 0001444  90.5604 269.5554 15.08840787114516,6917.878,95.438,540.742,538.744,0.0
52587.0,STARLINK-3867,PAYLOAD,2024-06-04 07:43:52,15.08836372,0.0001245,53.218,127.166,88.8409,271.2725,2.0206e-05,3.4e-07,0.0,0 STARLINK-3867,1 52587U 22051BD  24156.32213372  .00000034  00000-0  20206-4 0  9999,2 52587  53.2180 127.1660 0001245  88.8409 271.2725 15.08836372114465,6917.891,95.438,540.618,538.895,0.0
